{"type": "FeatureCollection", "features": [ {"type": "Feature", "properties": {"norad_id": 35979, "name": "COSMOS 2251 DEB", "group": "cosmos-2251-debris", "lat": 40.00562772941473, "lon": 39.14812043227303, "alt_km": 670.9427027671663, "timestamp": "2025-12-15T10:55:21.541708+00:00", "meta": {"OBJECT_NAME": "COSMOS 2251 DEB", "OBJECT_ID": "1993-036AVV", "EPOCH": "2025-12-12T23:45:06.669792", "MEAN_MOTION": 14.74652089, "ECCENTRICITY": 0.00589078, "INCLINATION": 74.0101, "RA_OF_ASC_NODE": 237.8948, "ARG_OF_PERICENTER": 10.0091, "MEAN_ANOMALY": 4.2264, "EPHEMERIS_TYPE": 0, "CLASSIFICATION_TYPE": "U", "NORAD_CAT_ID": 35979, "ELEMENT_SET_NO": 999, "REV_AT_EPOCH": 88637, "BSTAR": 0.0014067844, "MEAN_MOTION_DOT": 9.634e-05, "MEAN_MOTION_DDOT": 0}, "tle": {"line1": "1 35979U 93036AVV 25346.98966053  .00009634  00000+0  14068-2 0  9992", "line2": "2 35979  74.0101 237.8948 0058907  10.0091   4.2264 14.74652089886375"}}, "geometry": {"type": "Point", "coordinates": [39.14812043227303, 40.00562772941473]}}, {"type": "Feature", "properties": {"norad_id": 35980, "name": "COSMOS 2251 DEB", "group": "cosmos-2251-debris", "lat": -43.58577514801174, "lon": -46.588769200639824, "alt_km": 667.3672709066341, "timestamp": "2025-12-15T10:55:21.541718+00:00", "meta": {"OBJECT_NAME": "COSMOS 2251 DEB", "OBJECT_ID": "1993-036AVW", "EPOCH": "2025-12-14T15:47:23.202816", "MEAN_MOTION": 14.59336587, "ECCENTRICITY": 0.00536439, "INCLINATION": 73.911, "RA_OF_ASC_NODE": 118.9971, "ARG_OF_PERICENTER": 253.1844, "MEAN_ANOMALY": 106.3432, "EPHEMERIS_TYPE": 0, "CLASSIFICATION_TYPE": "U", "NORAD_CAT_ID": 35980, "ELEMENT_SET_NO": 999, "REV_AT_EPOCH": 61514, "BSTAR": 0.0014581609, "MEAN_MOTION_DOT": 7.012e-05, "MEAN_MOTION_DDOT": 0}, "tle": {"line1": "1 35980U 93036AVW 25348.65790744  .00007012  00000+0  14582-2 0  9991", "line2": "2 35980  73.9110 118.9971 0053643 253.1844 106.3432 14.59336587615149"}}, "geometry": {"type": "Point", "coordinates": [-46.588769200639824, -43.58577514801174]}}, {"type": "Feature", "properties": {"norad_id": 35982, "name": "COSMOS 2251 DEB", "group": "cosmos-2251-debris", "lat": -3.889421677432424, "lon": 162.8460309294167, "alt_km": 720.2041371672976, "timestamp": "2025-12-15T10:55:21.541729+00:00", "meta": {"OBJECT_NAME": "COSMOS 2251 DEB", "OBJECT_ID": "1993-036AVY", "EPOCH": "2025-12-14T06:11:08.043072", "MEAN_MOTION": 14.62762672, "ECCENTRICITY": 0.00641752, "INCLINATION": 74.0584, "RA_OF_ASC_NODE": 344.0235, "ARG_OF_PERICENTER": 49.8737, "MEAN_ANOMALY": 310.8028, "EPHEMERIS_TYPE": 0, "CLASSIFICATION_TYPE": "U", "NORAD_CAT_ID": 35982, "ELEMENT_SET_NO": 999, "REV_AT_EPOCH": 86188, "BSTAR": 0.00070329897, "MEAN_MOTION_DOT": 3.665e-05, "MEAN_MOTION_DDOT": 0}, "tle": {"line1": "1 35982U 93036AVY 25348.25773198  .00003665  00000+0  70330-3 0  9997", "line2": "2 35982  74.0584 344.0235 0064175  49.8737 310.8028 14.62762672861885"}}, "geometry": {"type": "Point", "coordinates": [162.8460309294167, -3.889421677432424]}}, {"type": "Feature", "properties": {"norad_id": 35987, "name": "COSMOS 2251 DEB", "group": "cosmos-2251-debris", "lat": -15.156358484557298, "lon": -42.868835934291035, "alt_km": 759.2231268112009, "timestamp": "2025-12-15T10:55:21.541739+00:00", "meta": {"OBJECT_NAME": "COSMOS 2251 DEB", "OBJECT_ID": "1993-036AWD", "EPOCH": "2025-12-14T05:02:56.141664", "MEAN_MOTION": 14.43139491, "ECCENTRICITY": 0.00459797, "INCLINATION": 73.9997, "RA_OF_ASC_NODE": 323.9049, "ARG_OF_PERICENTER": 89.0828, "MEAN_ANOMALY": 271.5596, "EPHEMERIS_TYPE": 0, "CLASSIFICATION_TYPE": "U", "NORAD_CAT_ID": 35987, "ELEMENT_SET_NO": 999, "REV_AT_EPOCH": 61086, "BSTAR": 0.001182332, "MEAN_MOTION_DOT": 3.997e-05, "MEAN_MOTION_DDOT": 0}, "tle": {"line1": "1 35987U 93036AWD 25348.21037201  .00003997  00000+0  11823-2 0  9995", "line2": "2 35987  73.9997 323.9049 0045979  89.0828 271.5596 14.43139491610862"}}, "geometry": {"type": "Point", "coordinates": [-42.868835934291035, -15.156358484557298]}}, {"type": "Feature", "properties": {"norad_id": 35989, "name": "COSMOS 2251 DEB", "group": "cosmos-2251-debris", "lat": -28.112213852521133, "lon": -89.95489811106332, "alt_km": 759.7663630473598, "timestamp": "2025-12-15T10:55:21.541749+00:00", "meta": {"OBJECT_NAME": "COSMOS 2251 DEB", "OBJECT_ID": "1993-036AWF", "EPOCH": "2025-12-13T02:15:17.161632", "MEAN_MOTION": 14.3710324, "ECCENTRICITY": 0.00220362, "INCLINATION": 74.0383, "RA_OF_ASC_NODE": 283.1801, "ARG_OF_PERICENTER": 4.8698, "MEAN_ANOMALY": 355.2666, "EPHEMERIS_TYPE": 0, "CLASSIFICATION_TYPE": "U", "NORAD_CAT_ID": 35989, "ELEMENT_SET_NO": 999, "REV_AT_EPOCH": 87184, "BSTAR": 0.00037396627, "MEAN_MOTION_DOT": 1.088e-05, "MEAN_MOTION_DDOT": 0}, "tle": {"line1": "1 35989U 93036AWF 25347.09394863  .00001088  00000+0  37397-3 0  9996", "line2": "2 35989  74.0383 283.1801 0022036   4.8698 355.2666 14.37103240871848"}}, "geometry": {"type": "Point", "coordinates": [-89.95489811106332, -28.112213852521133]}}, {"type": "Feature", "properties": {"norad_id": 35993, "name": "COSMOS 2251 DEB", "group": "cosmos-2251-debris", "lat": 52.13415179376943, "lon": 125.93308713136945, "alt_km": 653.4606796618391, "timestamp": "2025-12-15T10:55:21.541759+00:00", "meta": {"OBJECT_NAME": "COSMOS 2251 DEB", "OBJECT_ID": "1993-036AWK", "EPOCH": "2025-12-13T05:55:18.939936", "MEAN_MOTION": 14.6530961, "ECCENTRICITY": 0.00288758, "INCLINATION": 74.015, "RA_OF_ASC_NODE": 331.8205, "ARG_OF_PERICENTER": 161.3333, "MEAN_ANOMALY": 198.8902, "EPHEMERIS_TYPE": 0, "CLASSIFICATION_TYPE": "U", "NORAD_CAT_ID": 35993, "ELEMENT_SET_NO": 999, "REV_AT_EPOCH": 60450, "BSTAR": 0.0012058199, "MEAN_MOTION_DOT": 6.521e-05, "MEAN_MOTION_DDOT": 0}, "tle": {"line1": "1 35993U 93036AWK 25347.24674699  .00006521  00000+0  12058-2 0  9999", "line2": "2 35993  74.0150 331.8205 0028875 161.3333 198.8902 14.65309610604507"}}, "geometry": {"type": "Point", "coordinates": [125.93308713136945, 52.13415179376943]}}, {"type": "Feature", "properties": {"norad_id": 35996, "name": "COSMOS 2251 DEB", "group": "cosmos-2251-debris", "lat": -71.38343346912268, "lon": 39.503706170550686, "alt_km": 546.5362205758365, "timestamp": "2025-12-15T10:55:21.541769+00:00", "meta": {"OBJECT_NAME": "COSMOS 2251 DEB", "OBJECT_ID": "1993-036AWN", "EPOCH": "2025-12-11T00:41:09.521088", "MEAN_MOTION": 15.0906793, "ECCENTRICITY": 0.00884253, "INCLINATION": 74.0157, "RA_OF_ASC_NODE": 106.9511, "ARG_OF_PERICENTER": 198.4339, "MEAN_ANOMALY": 161.3644, "EPHEMERIS_TYPE": 0, "CLASSIFICATION_TYPE": "U", "NORAD_CAT_ID": 35996, "ELEMENT_SET_NO": 999, "REV_AT_EPOCH": 72300, "BSTAR": 0.0011651351, "MEAN_MOTION_DOT": 0.00020245, "MEAN_MOTION_DDOT": 0}, "tle": {"line1": "1 35996U 93036AWN 25345.02858242  .00020245  00000+0  11651-2 0  9991", "line2": "2 35996  74.0157 106.9511 0088425 198.4339 161.3644 15.09067930723002"}}, "geometry": {"type": "Point", "coordinates": [39.503706170550686, -71.38343346912268]}}, {"type": "Feature", "properties": {"norad_id": 35997, "name": "COSMOS 2251 DEB", "group": "cosmos-2251-debris", "lat": 14.884325121053942, "lon": -2.1753014273688143, "alt_km": 722.3818108862415, "timestamp": "2025-12-15T10:55:21.541779+00:00", "meta": {"OBJECT_NAME": "COSMOS 2251 DEB", "OBJECT_ID": "1993-036AWP", "EPOCH": "2025-12-14T22:35:08.657088", "MEAN_MOTION": 14.51324484, "ECCENTRICITY": 0.00157283, "INCLINATION": 74.0427, "RA_OF_ASC_NODE": 183.1527, "ARG_OF_PERICENTER": 258.4446, "MEAN_ANOMALY": 101.495, "EPHEMERIS_TYPE": 0, "CLASSIFICATION_TYPE": "U", "NORAD_CAT_ID": 35997, "ELEMENT_SET_NO": 999, "REV_AT_EPOCH": 70916, "BSTAR": 0.0004756856, "MEAN_MOTION_DOT": 1.87e-05, "MEAN_MOTION_DDOT": 0}, "tle": {"line1": "1 35997U 93036AWP 25348.94107242  .00001870  00000+0  47569-3 0  9994", "line2": "2 35997  74.0427 183.1527 0015728 258.4446 101.4950 14.51324484709161"}}, "geometry": {"type": "Point", "coordinates": [-2.1753014273688143, 14.884325121053942]}}, {"type": "Feature", "properties": {"norad_id": 36005, "name": "COSMOS 2251 DEB", "group": "cosmos-2251-debris", "lat": 22.22138842752634, "lon": -97.79322725813904, "alt_km": 717.5527563395353, "timestamp": "2025-12-15T10:55:21.541789+00:00", "meta": {"OBJECT_NAME": "COSMOS 2251 DEB", "OBJECT_ID": "1993-036AWX", "EPOCH": "2025-12-14T01:01:05.566656", "MEAN_MOTION": 14.47360539, "ECCENTRICITY": 0.00618913, "INCLINATION": 74.027, "RA_OF_ASC_NODE": 91.5685, "ARG_OF_PERICENTER": 228.6373, "MEAN_ANOMALY": 130.9454, "EPHEMERIS_TYPE": 0, "CLASSIFICATION_TYPE": "U", "NORAD_CAT_ID": 36005, "ELEMENT_SET_NO": 999, "REV_AT_EPOCH": 87603, "BSTAR": 0.00028384048, "MEAN_MOTION_DOT": 1.037e-05, "MEAN_MOTION_DDOT": 0}, "tle": {"line1": "1 36005U 93036AWX 25348.04242554  .00001037  00000+0  28384-3 0  9991", "line2": "2 36005  74.0270  91.5685 0061891 228.6373 130.9454 14.47360539876038"}}, "geometry": {"type": "Point", "coordinates": [-97.79322725813904, 22.22138842752634]}}, {"type": "Feature", "properties": {"norad_id": 36045, "name": "COSMOS 2251 DEB", "group": "cosmos-2251-debris", "lat": 67.01555950431143, "lon": 97.13505162776441, "alt_km": 620.5997168461972, "timestamp": "2025-12-15T10:55:21.541799+00:00", "meta": {"OBJECT_NAME": "COSMOS 2251 DEB", "OBJECT_ID": "1993-036AXG", "EPOCH": "2025-12-11T13:29:08.197152", "MEAN_MOTION": 14.69806465, "ECCENTRICITY": 0.00482484, "INCLINATION": 73.7636, "RA_OF_ASC_NODE": 61.4081, "ARG_OF_PERICENTER": 75.4727, "MEAN_ANOMALY": 285.1788, "EPHEMERIS_TYPE": 0, "CLASSIFICATION_TYPE": "U", "NORAD_CAT_ID": 36045, "ELEMENT_SET_NO": 999, "REV_AT_EPOCH": 8371, "BSTAR": 0.0031629771, "MEAN_MOTION_DOT": 0.00019249, "MEAN_MOTION_DDOT": 0}, "tle": {"line1": "1 36045U 93036AXG 25345.56190043  .00019249  00000+0  31630-2 0  9995", "line2": "2 36045  73.7636  61.4081 0048248  75.4727 285.1788 14.69806465 83717"}}, "geometry": {"type": "Point", "coordinates": [97.13505162776441, 67.01555950431143]}}]}